SAR-LUPE 2              
1 31797U 07030A   26188.59677051  .00027948  00000+0  44958-3 0  9994
2 31797  98.1053 295.6108 0003668 211.7722 148.3308 15.52960983 60103
SAPPHIRE                
1 39088U 13009C   26188.58830728  .00000081  00000+0  43094-4 0  9999
2 39088  98.4271   7.5605 0011099 182.1132 178.0008 14.35246105699506
PRAETORIAN SDA_602      
1 65565U 25203A   26187.90390066  .00000082  00000+0  62797-4 0  9990
2 65565  81.3035 352.5106 0006821 136.8371 223.3321 13.83887528 41427
PRAETORIAN SDA_603      
1 65566U 25203B   26188.43869855  .00000175  00000+0  14700-3 0  9990
2 65566  81.3041 351.9373 0010530 133.7942 226.4087 13.83961968 41509
PRAETORIAN SDA_604      
1 65567U 25203C   26188.39881106  .00000071  00000+0  53902-4 0  9992
2 65567  81.3058 352.4181 0006316 139.2743 220.8887 13.83049700 41471
PRAETORIAN SDA_605      
1 65568U 25203D   26183.87446639  .00000022  00000+0  92536-5 0  9992
2 65568  81.3021 356.2472 0008905 142.0754 218.1031 13.83435094 40865
PRAETORIAN SDA_606      
1 65569U 25203E   26188.41685434  .00000067  00000+0  50109-4 0  9994
2 65569  81.3060 352.2818 0006947 133.9815 226.1916 13.83199684 41482
PRAETORIAN SDA_607      
1 65570U 25203F   26187.90420413  .00000144  00000+0  11951-3 0  9990
2 65570  81.3044 352.3844 0009734 134.7396 225.4555 13.83758206 41433
PRAETORIAN SDA_608      
1 65571U 25203G   26188.46551944  .00000065  00000+0  48234-4 0  9994
2 65571  81.3013 352.0321 0006823 138.2747 221.8931 13.83818948 41496
PRAETORIAN SDA_609      
1 65572U 25203H   26188.46469532 -.00001502  00000+0 -13587-2 0  9996
2 65572  81.3036 352.0139 0007400 132.2450 227.9335 13.84205995 41506
PRAETORIAN SDA_610      
1 65573U 25203J   26188.44597577  .00000044  00000+0  28695-4 0  9992
2 65573  81.3013 352.0099 0007591 137.6923 222.4821 13.83769264 41493
PRAETORIAN SDA_611      
1 65574U 25203K   26188.45348706  .00000114  00000+0  92535-4 0  9994
2 65574  81.3021 352.1829 0006411 141.5087 218.6527 13.83311071 41488
PRAETORIAN SDA_612      
1 65575U 25203L   26188.41781178  .00000179  00000+0  14720-3 0  9995
2 65575  81.3034 351.7529 0010113 133.9206 226.2787 13.85040322 41514
PRAETORIAN SDA_613      
1 65576U 25203M   26188.39583926  .00000070  00000+0  53369-4 0  9997
2 65576  81.3005 352.2489 0006557 132.8254 227.3454 13.82767218 41477
PRAETORIAN SDA_614      
1 65577U 25203N   26187.90503739  .00000000  00000+0 -10468-4 0  9995
2 65577  81.3010 352.3107 0007966 133.0913 227.0912 13.84778018 41447
PRAETORIAN SDA_615      
1 65578U 25203P   26188.46494635  .00000174  00000+0  14436-3 0  9991
2 65578  81.3024 351.7682 0009925 132.5428 227.6569 13.84437656 41518
PRAETORIAN SDA_616      
1 65579U 25203Q   26187.94698213  .00000172  00000+0  14623-3 0  9998
2 65579  81.3068 352.8098 0006205 141.3083 218.8518 13.83270525 41417
PRAETORIAN SDA_617      
1 65580U 25203R   26187.89793508  .00000055  00000+0  39283-4 0  9997
2 65580  81.3042 352.6844 0008246 133.3059 226.8786 13.83151490 41414
PRAETORIAN SDA_618      
1 65581U 25203S   26188.43110405  .00000100  00000+0  79154-4 0  9990
2 65581  81.3026 351.7291 0010632 136.0247 224.1757 13.84225388 41513
PRAETORIAN SDA_619      
1 65582U 25203T   26187.89773026  .00000182  00000+0  15346-3 0  9996
2 65582  81.3057 352.5447 0009084 134.6911 225.4987 13.83805775 42053
PRAETORIAN SDA_620      
1 65583U 25203U   26188.43566953  .00000164  00000+0  13858-3 0  9993
2 65583  81.3033 352.0725 0008486 130.2691 229.9208 13.83304308 41492
PRAETORIAN SDA_621      
1 65584U 25203V   26188.40568399  .00000085  00000+0  66030-4 0  9990
2 65584  81.3027 352.0081 0008320 127.3400 232.8516 13.83803578 41491
PRAETORIAN SDA_601      
1 65585U 25203W   26188.45790663 -.00000397  00000+0 -37304-3 0  9996
2 65585  81.3051 352.2799 0006286 142.9490 217.2101 13.83169397 41488
VICTUS HAZE PUMA        
1 69646U 26142A   26188.61297669  .00002952  00000+0  13600-3 0  9997
2 69646  97.4473  86.0040 0025215 294.1906  65.6694 15.20811324  2770
